{"type": "FeatureCollection", "features": [ {"type": "Feature", "properties": {"norad_id": 38143, "name": "FENGYUN 1C DEB", "group": "fengyun-1c-debris", "lat": -29.324492980968714, "lon": 60.677908934623616, "alt_km": 916.3112048738421, "timestamp": "2025-12-25T16:53:14.953383+00:00", "meta": {"OBJECT_NAME": "FENGYUN 1C DEB", "OBJECT_ID": "1999-025EQQ", "EPOCH": "2025-12-17T09:02:58.047936", "MEAN_MOTION": 14.0490641, "ECCENTRICITY": 0.00563343, "INCLINATION": 99.0304, "RA_OF_ASC_NODE": 47.2681, "ARG_OF_PERICENTER": 207.7954, "MEAN_ANOMALY": 152.0199, "EPHEMERIS_TYPE": 0, "CLASSIFICATION_TYPE": "U", "NORAD_CAT_ID": 38143, "ELEMENT_SET_NO": 999, "REV_AT_EPOCH": 60348, "BSTAR": 0.00075665918, "MEAN_MOTION_DOT": 1.189e-05, "MEAN_MOTION_DDOT": 0}, "tle": {"line1": "1 38143U 99025EQQ 25351.37706074  .00001189  00000+0  75666-3 0  9995", "line2": "2 38143  99.0304  47.2681 0056334 207.7954 152.0199 14.04906410603486"}}, "geometry": {"type": "Point", "coordinates": [60.677908934623616, -29.324492980968714]}}, {"type": "Feature", "properties": {"norad_id": 38144, "name": "FENGYUN 1C DEB", "group": "fengyun-1c-debris", "lat": -10.157998028439037, "lon": -175.29804043071726, "alt_km": 1253.6507811125648, "timestamp": "2025-12-25T16:53:14.953394+00:00", "meta": {"OBJECT_NAME": "FENGYUN 1C DEB", "OBJECT_ID": "1999-025EQR", "EPOCH": "2025-12-12T07:21:41.538528", "MEAN_MOTION": 13.59024242, "ECCENTRICITY": 0.02903277, "INCLINATION": 98.9688, "RA_OF_ASC_NODE": 170.8072, "ARG_OF_PERICENTER": 192.7812, "MEAN_ANOMALY": 166.5857, "EPHEMERIS_TYPE": 0, "CLASSIFICATION_TYPE": "U", "NORAD_CAT_ID": 38144, "ELEMENT_SET_NO": 999, "REV_AT_EPOCH": 61031, "BSTAR": 0.0024533733, "MEAN_MOTION_DOT": 2.337e-05, "MEAN_MOTION_DDOT": 0}, "tle": {"line1": "1 38144U 99025EQR 25346.30673077  .00002337  00000+0  24534-2 0  9992", "line2": "2 38144  98.9688 170.8072 0290327 192.7812 166.5857 13.59024242610319"}}, "geometry": {"type": "Point", "coordinates": [-175.29804043071726, -10.157998028439037]}}, {"type": "Feature", "properties": {"norad_id": 38146, "name": "FENGYUN 1C DEB", "group": "fengyun-1c-debris", "lat": -79.85783006217584, "lon": -167.05060323152492, "alt_km": 834.3380160074221, "timestamp": "2025-12-25T16:53:14.953405+00:00", "meta": {"OBJECT_NAME": "FENGYUN 1C DEB", "OBJECT_ID": "1999-025EQT", "EPOCH": "2025-12-24T11:47:04.879680", "MEAN_MOTION": 14.59342352, "ECCENTRICITY": 0.02018657, "INCLINATION": 99.4818, "RA_OF_ASC_NODE": 80.6736, "ARG_OF_PERICENTER": 67.8098, "MEAN_ANOMALY": 312.4386, "EPHEMERIS_TYPE": 0, "CLASSIFICATION_TYPE": "U", "NORAD_CAT_ID": 38146, "ELEMENT_SET_NO": 999, "REV_AT_EPOCH": 32051, "BSTAR": 0.00078229968, "MEAN_MOTION_DOT": 4.854e-05, "MEAN_MOTION_DDOT": 0}, "tle": {"line1": "1 38146U 99025EQT 25358.49102870  .00004854  00000+0  78230-3 0  9994", "line2": "2 38146  99.4818  80.6736 0201865  67.8098 312.4386 14.59342352320519"}}, "geometry": {"type": "Point", "coordinates": [-167.05060323152492, -79.85783006217584]}}, {"type": "Feature", "properties": {"norad_id": 38147, "name": "FENGYUN 1C DEB", "group": "fengyun-1c-debris", "lat": -21.725557637372397, "lon": -169.86709591661943, "alt_km": 800.8950538087465, "timestamp": "2025-12-25T16:53:14.953415+00:00", "meta": {"OBJECT_NAME": "FENGYUN 1C DEB", "OBJECT_ID": "1999-025EQU", "EPOCH": "2025-12-24T06:11:51.590400", "MEAN_MOTION": 14.23473632, "ECCENTRICITY": 0.00496347, "INCLINATION": 98.5575, "RA_OF_ASC_NODE": 12.1669, "ARG_OF_PERICENTER": 266.0478, "MEAN_ANOMALY": 93.5026, "EPHEMERIS_TYPE": 0, "CLASSIFICATION_TYPE": "U", "NORAD_CAT_ID": 38147, "ELEMENT_SET_NO": 999, "REV_AT_EPOCH": 60551, "BSTAR": 0.0005418078, "MEAN_MOTION_DOT": 1.204e-05, "MEAN_MOTION_DDOT": 0}, "tle": {"line1": "1 38147U 99025EQU 25358.25823600  .00001204  00000+0  54181-3 0  9995", "line2": "2 38147  98.5575  12.1669 0049634 266.0478  93.5026 14.23473632605515"}}, "geometry": {"type": "Point", "coordinates": [-169.86709591661943, -21.725557637372397]}}, {"type": "Feature", "properties": {"norad_id": 38149, "name": "FENGYUN 1C DEB", "group": "fengyun-1c-debris", "lat": 78.17865920206458, "lon": -144.04329540830025, "alt_km": 746.8334727739793, "timestamp": "2025-12-25T16:53:14.953425+00:00", "meta": {"OBJECT_NAME": "FENGYUN 1C DEB", "OBJECT_ID": "1999-025EQW", "EPOCH": "2025-12-24T16:51:08.815968", "MEAN_MOTION": 14.25930229, "ECCENTRICITY": 0.00785452, "INCLINATION": 98.3575, "RA_OF_ASC_NODE": 350.3849, "ARG_OF_PERICENTER": 126.3504, "MEAN_ANOMALY": 234.4959, "EPHEMERIS_TYPE": 0, "CLASSIFICATION_TYPE": "U", "NORAD_CAT_ID": 38149, "ELEMENT_SET_NO": 999, "REV_AT_EPOCH": 70658, "BSTAR": 0.0001943926, "MEAN_MOTION_DOT": 4.38e-06, "MEAN_MOTION_DDOT": 0}, "tle": {"line1": "1 38149U 99025EQW 25358.70218537  .00000438  00000+0  19439-3 0  9999", "line2": "2 38149  98.3575 350.3849 0078545 126.3504 234.4959 14.25930229706585"}}, "geometry": {"type": "Point", "coordinates": [-144.04329540830025, 78.17865920206458]}}, {"type": "Feature", "properties": {"norad_id": 38155, "name": "FENGYUN 1C DEB", "group": "fengyun-1c-debris", "lat": -2.376961846828447, "lon": -96.08041415586926, "alt_km": 812.0801063232975, "timestamp": "2025-12-25T16:53:14.953435+00:00", "meta": {"OBJECT_NAME": "FENGYUN 1C DEB", "OBJECT_ID": "1999-025ERC", "EPOCH": "2025-12-18T23:08:16.383264", "MEAN_MOTION": 14.25112386, "ECCENTRICITY": 0.00979258, "INCLINATION": 98.4473, "RA_OF_ASC_NODE": 257.0769, "ARG_OF_PERICENTER": 108.7402, "MEAN_ANOMALY": 252.4435, "EPHEMERIS_TYPE": 0, "CLASSIFICATION_TYPE": "U", "NORAD_CAT_ID": 38155, "ELEMENT_SET_NO": 999, "REV_AT_EPOCH": 63864, "BSTAR": 0.0016814228, "MEAN_MOTION_DOT": 4.107e-05, "MEAN_MOTION_DDOT": 0}, "tle": {"line1": "1 38155U 99025ERC 25352.96407851  .00004107  00000+0  16814-2 0  9997", "line2": "2 38155  98.4473 257.0769 0097925 108.7402 252.4435 14.25112386638644"}}, "geometry": {"type": "Point", "coordinates": [-96.08041415586926, -2.376961846828447]}}, {"type": "Feature", "properties": {"norad_id": 38157, "name": "FENGYUN 1C DEB", "group": "fengyun-1c-debris", "lat": -72.3400458447024, "lon": 55.56387802812603, "alt_km": 1023.7718946773984, "timestamp": "2025-12-25T16:53:14.953446+00:00", "meta": {"OBJECT_NAME": "FENGYUN 1C DEB", "OBJECT_ID": "1999-025ERE", "EPOCH": "2025-12-22T04:56:52.679328", "MEAN_MOTION": 14.21771497, "ECCENTRICITY": 0.02743434, "INCLINATION": 99.6568, "RA_OF_ASC_NODE": 264.065, "ARG_OF_PERICENTER": 87.817, "MEAN_ANOMALY": 275.4389, "EPHEMERIS_TYPE": 0, "CLASSIFICATION_TYPE": "U", "NORAD_CAT_ID": 38157, "ELEMENT_SET_NO": 999, "REV_AT_EPOCH": 76382, "BSTAR": 0.00067847723, "MEAN_MOTION_DOT": 2.134e-05, "MEAN_MOTION_DDOT": 0}, "tle": {"line1": "1 38157U 99025ERE 25356.20616527  .00002134  00000+0  67848-3 0  9994", "line2": "2 38157  99.6568 264.0650 0274343  87.8170 275.4389 14.21771497763823"}}, "geometry": {"type": "Point", "coordinates": [55.56387802812603, -72.3400458447024]}}, {"type": "Feature", "properties": {"norad_id": 38159, "name": "FENGYUN 1C DEB", "group": "fengyun-1c-debris", "lat": -10.649361856096164, "lon": 69.89681204029714, "alt_km": 902.7718276380992, "timestamp": "2025-12-25T16:53:14.953456+00:00", "meta": {"OBJECT_NAME": "FENGYUN 1C DEB", "OBJECT_ID": "1999-025ERG", "EPOCH": "2025-12-04T22:05:20.152032", "MEAN_MOTION": 14.03448484, "ECCENTRICITY": 0.005704, "INCLINATION": 99.3156, "RA_OF_ASC_NODE": 230.39, "ARG_OF_PERICENTER": 2.347, "MEAN_ANOMALY": 357.7952, "EPHEMERIS_TYPE": 0, "CLASSIFICATION_TYPE": "U", "NORAD_CAT_ID": 38159, "ELEMENT_SET_NO": 999, "REV_AT_EPOCH": 83002, "BSTAR": 0.0010527, "MEAN_MOTION_DOT": 1.625e-05, "MEAN_MOTION_DDOT": 0}, "tle": {"line1": "1 38159U 99025ERG 25338.92037213  .00001625  00000+0  10527-2 0  9999", "line2": "2 38159  99.3156 230.3900 0057040   2.3470 357.7952 14.03448484830021"}}, "geometry": {"type": "Point", "coordinates": [69.89681204029714, -10.649361856096164]}}, {"type": "Feature", "properties": {"norad_id": 38163, "name": "FENGYUN 1C DEB", "group": "fengyun-1c-debris", "lat": -44.89462055722152, "lon": -152.88624918790484, "alt_km": 827.5115396689207, "timestamp": "2025-12-25T16:53:14.953466+00:00", "meta": {"OBJECT_NAME": "FENGYUN 1C DEB", "OBJECT_ID": "1999-025ERL", "EPOCH": "2025-12-24T07:21:56.877984", "MEAN_MOTION": 14.05946513, "ECCENTRICITY": 0.00764665, "INCLINATION": 99.1277, "RA_OF_ASC_NODE": 34.9241, "ARG_OF_PERICENTER": 210.1825, "MEAN_ANOMALY": 149.4926, "EPHEMERIS_TYPE": 0, "CLASSIFICATION_TYPE": "U", "NORAD_CAT_ID": 38163, "ELEMENT_SET_NO": 999, "REV_AT_EPOCH": 24704, "BSTAR": 0.00077703552, "MEAN_MOTION_DOT": 1.261e-05, "MEAN_MOTION_DDOT": 0}, "tle": {"line1": "1 38163U 99025ERL 25358.30690831  .00001261  00000+0  77704-3 0  9996", "line2": "2 38163  99.1277  34.9241 0076466 210.1825 149.4926 14.05946513247049"}}, "geometry": {"type": "Point", "coordinates": [-152.88624918790484, -44.89462055722152]}}, {"type": "Feature", "properties": {"norad_id": 38166, "name": "FENGYUN 1C DEB", "group": "fengyun-1c-debris", "lat": -14.664649160707532, "lon": -79.0430408825083, "alt_km": 829.3062431916987, "timestamp": "2025-12-25T16:53:14.953477+00:00", "meta": {"OBJECT_NAME": "FENGYUN 1C DEB", "OBJECT_ID": "1999-025ERP", "EPOCH": "2025-12-22T05:45:31.701600", "MEAN_MOTION": 14.3105877, "ECCENTRICITY": 0.00517741, "INCLINATION": 99.0784, "RA_OF_ASC_NODE": 99.7383, "ARG_OF_PERICENTER": 15.971, "MEAN_ANOMALY": 344.3089, "EPHEMERIS_TYPE": 0, "CLASSIFICATION_TYPE": "U", "NORAD_CAT_ID": 38166, "ELEMENT_SET_NO": 999, "REV_AT_EPOCH": 63908, "BSTAR": 0.0025364996, "MEAN_MOTION_DOT": 6.738e-05, "MEAN_MOTION_DDOT": 0}, "tle": {"line1": "1 38166U 99025ERP 25356.23995025  .00006738  00000+0  25365-2 0  9991", "line2": "2 38166  99.0784  99.7383 0051774  15.9710 344.3089 14.31058770639082"}}, "geometry": {"type": "Point", "coordinates": [-79.0430408825083, -14.664649160707532]}}]}